{"type":"FeatureCollection","features":[{"type":"Feature","id":"DEMO-L001","properties":{"__uid":"DEMO-L001","link_id":"DEMO-L001","name":"Demo road 01","length_m":40.8},"geometry":{"type":"LineString","coordinates":[[6.142,46.205586242],[6.142042741,46.205580571],[6.142310041,46.205595071],[6.142392441,46.205596571],[6.142466441,46.205590271],[6.142487241,46.205588571],[6.142526541,46.205581871]]}},{"type":"Feature","id":"DEMO-L002","properties":{"__uid":"DEMO-L002","link_id":"DEMO-L002","name":"Demo road 02","length_m":19.0},"geometry":{"type":"LineString","coordinates":[[6.142246241,46.205680871],[6.142189741,46.205678371],[6.142113641,46.205674971],[6.142037541,46.205671671],[6.142,46.20567174]]}},{"type":"Feature","id":"DEMO-L003","properties":{"__uid":"DEMO-L003","link_id":"DEMO-L003","name":"Demo road 03","length_m":12.8},"geometry":{"type":"LineString","coordinates":[[6.142411941,46.205688071],[6.142246241,46.205680871]]}},{"type":"Feature","id":"DEMO-L004","properties":{"__uid":"DEMO-L004","link_id":"DEMO-L004","name":"Demo road 04","length_m":13.3},"geometry":{"type":"LineString","coordinates":[[6.142526541,46.205581871],[6.142559641,46.205576271],[6.142595841,46.205565771],[6.142630341,46.205554371],[6.142682741,46.205532471]]}},{"type":"Feature","id":"DEMO-L005","properties":{"__uid":"DEMO-L005","link_id":"DEMO-L005","name":"Demo road 05","length_m":9.5},"geometry":{"type":"LineString","coordinates":[[6.142535341,46.205687171],[6.142465441,46.205690471],[6.142411941,46.205688071]]}},{"type":"Feature","id":"DEMO-L006","properties":{"__uid":"DEMO-L006","link_id":"DEMO-L006","name":"Demo road 06","length_m":3.6},"geometry":{"type":"LineString","coordinates":[[6.142581841,46.205683971],[6.142535341,46.205687171]]}},{"type":"Feature","id":"DEMO-L007","properties":{"__uid":"DEMO-L007","link_id":"DEMO-L007","name":"Demo road 07","length_m":49.2},"geometry":{"type":"LineString","coordinates":[[6.142624441,46.204315671],[6.142331941,46.204259271],[6.142092741,46.204208571],[6.142012041,46.204191471]]}},{"type":"Feature","id":"DEMO-L008","properties":{"__uid":"DEMO-L008","link_id":"DEMO-L008","name":"Demo road 08","length_m":2.5},"geometry":{"type":"LineString","coordinates":[[6.142652241,46.204303371],[6.142624441,46.204315671]]}},{"type":"Feature","id":"DEMO-L009","properties":{"__uid":"DEMO-L009","link_id":"DEMO-L009","name":"Demo road 09","length_m":20.4},"geometry":{"type":"LineString","coordinates":[[6.142682741,46.205532471],[6.142695941,46.205571071],[6.142674641,46.205615271],[6.142638341,46.205659171],[6.142581841,46.205683971]]}},{"type":"Feature","id":"DEMO-L010","properties":{"__uid":"DEMO-L010","link_id":"DEMO-L010","name":"Demo road 10","length_m":28.6},"geometry":{"type":"LineString","coordinates":[[6.142682741,46.205532471],[6.142731241,46.205449571],[6.142770441,46.205374571],[6.142813641,46.205292471]]}},{"type":"Feature","id":"DEMO-L011","properties":{"__uid":"DEMO-L011","link_id":"DEMO-L011","name":"Demo road 11","length_m":8.8},"geometry":{"type":"LineString","coordinates":[[6.142696041,46.205681171],[6.142664741,46.205681971],[6.142581841,46.205683971]]}},{"type":"Feature","id":"DEMO-L012","properties":{"__uid":"DEMO-L012","link_id":"DEMO-L012","name":"Demo road 12","length_m":6.2},"geometry":{"type":"LineString","coordinates":[[6.142719941,46.204273571],[6.142652241,46.204303371]]}},{"type":"Feature","id":"DEMO-L013","properties":{"__uid":"DEMO-L013","link_id":"DEMO-L013","name":"Demo road 13","length_m":19.8},"geometry":{"type":"LineString","coordinates":[[6.142783472,46.206],[6.142892941,46.205838671]]}},{"type":"Feature","id":"DEMO-L014","properties":{"__uid":"DEMO-L014","link_id":"DEMO-L014","name":"Demo road 10","length_m":28.6},"geometry":{"type":"LineString","coordinates":[[6.142813641,46.205292471],[6.142770441,46.205374571],[6.142731241,46.205449571],[6.142682741,46.205532471]]}},{"type":"Feature","id":"DEMO-L015","properties":{"__uid":"DEMO-L015","link_id":"DEMO-L015","name":"Demo road 14","length_m":15.3},"geometry":{"type":"LineString","coordinates":[[6.142813641,46.205292471],[6.142848041,46.205217571],[6.142869641,46.205175471],[6.142876141,46.205161971]]}},{"type":"Feature","id":"DEMO-L016","properties":{"__uid":"DEMO-L016","link_id":"DEMO-L016","name":"Demo road 15","length_m":15.0},"geometry":{"type":"LineString","coordinates":[[6.142849841,46.204174871],[6.142820341,46.204209771],[6.142785841,46.204237471],[6.142758141,46.204252771],[6.142745541,46.204259671],[6.142719941,46.204273571]]}},{"type":"Feature","id":"DEMO-L017","properties":{"__uid":"DEMO-L017","link_id":"DEMO-L017","name":"Demo road 16","length_m":5.3},"geometry":{"type":"LineString","coordinates":[[6.142870741,46.204129171],[6.142849841,46.204174871]]}},{"type":"Feature","id":"DEMO-L018","properties":{"__uid":"DEMO-L018","link_id":"DEMO-L018","name":"Demo road 17","length_m":3.4},"geometry":{"type":"LineString","coordinates":[[6.142870741,46.204129171],[6.142886041,46.204157471]]}},{"type":"Feature","id":"DEMO-L019","properties":{"__uid":"DEMO-L019","link_id":"DEMO-L019","name":"Demo road 14","length_m":15.3},"geometry":{"type":"LineString","coordinates":[[6.142876141,46.205161971],[6.142869641,46.205175471],[6.142848041,46.205217571],[6.142813641,46.205292471]]}},{"type":"Feature","id":"DEMO-L020","properties":{"__uid":"DEMO-L020","link_id":"DEMO-L020","name":"Demo road 18","length_m":27.0},"geometry":{"type":"LineString","coordinates":[[6.142876141,46.205161971],[6.142898141,46.205116971],[6.142988741,46.204932071]]}},{"type":"Feature","id":"DEMO-L021","properties":{"__uid":"DEMO-L021","link_id":"DEMO-L021","name":"Demo road 19","length_m":14.7},"geometry":{"type":"LineString","coordinates":[[6.1428816,46.204],[6.142859741,46.204062171],[6.142856641,46.204082371],[6.142858541,46.204099671],[6.142870741,46.204129171]]}},{"type":"Feature","id":"DEMO-L022","properties":{"__uid":"DEMO-L022","link_id":"DEMO-L022","name":"Demo road 20","length_m":25.4},"geometry":{"type":"LineString","coordinates":[[6.142886041,46.204157471],[6.142906141,46.204179571],[6.142934441,46.204200071],[6.142984741,46.204224371],[6.143056441,46.204241471],[6.143111241,46.204257071],[6.143162641,46.204268671]]}},{"type":"Feature","id":"DEMO-L023","properties":{"__uid":"DEMO-L023","link_id":"DEMO-L023","name":"Demo road 13","length_m":19.8},"geometry":{"type":"LineString","coordinates":[[6.142892941,46.205838671],[6.142783472,46.206]]}},{"type":"Feature","id":"DEMO-L024","properties":{"__uid":"DEMO-L024","link_id":"DEMO-L024","name":"Demo road 21","length_m":17.1},"geometry":{"type":"LineString","coordinates":[[6.142892941,46.205838671],[6.142912641,46.205808471],[6.142932341,46.205778171],[6.142985741,46.205699371]]}},{"type":"Feature","id":"DEMO-L025","properties":{"__uid":"DEMO-L025","link_id":"DEMO-L025","name":"Demo road 22","length_m":20.7},"geometry":{"type":"LineString","coordinates":[[6.142963441,46.205697971],[6.142696041,46.205681171]]}},{"type":"Feature","id":"DEMO-L026","properties":{"__uid":"DEMO-L026","link_id":"DEMO-L026","name":"Demo road 21","length_m":17.1},"geometry":{"type":"LineString","coordinates":[[6.142985741,46.205699371],[6.142932341,46.205778171],[6.142912641,46.205808471],[6.142892941,46.205838671]]}},{"type":"Feature","id":"DEMO-L027","properties":{"__uid":"DEMO-L027","link_id":"DEMO-L027","name":"Demo road 23","length_m":9.7},"geometry":{"type":"LineString","coordinates":[[6.142985741,46.205699371],[6.143032741,46.205632071],[6.143040641,46.205620571]]}},{"type":"Feature","id":"DEMO-L028","properties":{"__uid":"DEMO-L028","link_id":"DEMO-L028","name":"Demo road 18","length_m":27.0},"geometry":{"type":"LineString","coordinates":[[6.142988741,46.204932071],[6.142898141,46.205116971],[6.142876141,46.205161971]]}},{"type":"Feature","id":"DEMO-L029","properties":{"__uid":"DEMO-L029","link_id":"DEMO-L029","name":"Demo road 24","length_m":16.6},"geometry":{"type":"LineString","coordinates":[[6.142988741,46.204932071],[6.143038441,46.204829571],[6.143057541,46.204790471]]}},{"type":"Feature","id":"DEMO-L030","properties":{"__uid":"DEMO-L030","link_id":"DEMO-L030","name":"Demo road 23","length_m":9.7},"geometry":{"type":"LineString","coordinates":[[6.143040641,46.205620571],[6.143032741,46.205632071],[6.142985741,46.205699371]]}},{"type":"Feature","id":"DEMO-L031","properties":{"__uid":"DEMO-L031","link_id":"DEMO-L031","name":"Demo road 25","length_m":2.2},"geometry":{"type":"LineString","coordinates":[[6.143040641,46.205620571],[6.143052241,46.205602271]]}},{"type":"Feature","id":"DEMO-L032","properties":{"__uid":"DEMO-L032","link_id":"DEMO-L032","name":"Demo road 25","length_m":2.2},"geometry":{"type":"LineString","coordinates":[[6.143052241,46.205602271],[6.143040641,46.205620571]]}},{"type":"Feature","id":"DEMO-L033","properties":{"__uid":"DEMO-L033","link_id":"DEMO-L033","name":"Demo road 26","length_m":31.4},"geometry":{"type":"LineString","coordinates":[[6.143052241,46.205602271],[6.143121841,46.205491571],[6.143127541,46.205481171],[6.143145641,46.205448071],[6.143199041,46.205339071]]}},{"type":"Feature","id":"DEMO-L034","properties":{"__uid":"DEMO-L034","link_id":"DEMO-L034","name":"Demo road 24","length_m":16.6},"geometry":{"type":"LineString","coordinates":[[6.143057541,46.204790471],[6.143038441,46.204829571],[6.142988741,46.204932071]]}},{"type":"Feature","id":"DEMO-L035","properties":{"__uid":"DEMO-L035","link_id":"DEMO-L035","name":"Demo road 27","length_m":34.6},"geometry":{"type":"LineString","coordinates":[[6.143057541,46.204790471],[6.143155641,46.204594071],[6.143175841,46.204545071],[6.143191841,46.204494171]]}},{"type":"Feature","id":"DEMO-L036","properties":{"__uid":"DEMO-L036","link_id":"DEMO-L036","name":"Demo road 28","length_m":7.1},"geometry":{"type":"LineString","coordinates":[[6.143162641,46.204268671],[6.143203741,46.204282871],[6.143237041,46.204305071]]}},{"type":"Feature","id":"DEMO-L037","properties":{"__uid":"DEMO-L037","link_id":"DEMO-L037","name":"Demo road 27","length_m":34.6},"geometry":{"type":"LineString","coordinates":[[6.143191841,46.204494171],[6.143175841,46.204545071],[6.143155641,46.204594071],[6.143057541,46.204790471]]}},{"type":"Feature","id":"DEMO-L038","properties":{"__uid":"DEMO-L038","link_id":"DEMO-L038","name":"Demo road 29","length_m":9.7},"geometry":{"type":"LineString","coordinates":[[6.143191841,46.204494171],[6.143196441,46.204467471],[6.143201941,46.204436071],[6.143206941,46.204407571]]}},{"type":"Feature","id":"DEMO-L039","properties":{"__uid":"DEMO-L039","link_id":"DEMO-L039","name":"Demo road 26","length_m":31.4},"geometry":{"type":"LineString","coordinates":[[6.143199041,46.205339071],[6.143145641,46.205448071],[6.143127541,46.205481171],[6.143121841,46.205491571],[6.143052241,46.205602271]]}},{"type":"Feature","id":"DEMO-L040","properties":{"__uid":"DEMO-L040","link_id":"DEMO-L040","name":"Demo road 30","length_m":57.7},"geometry":{"type":"LineString","coordinates":[[6.143199041,46.205339071],[6.143209641,46.205317471],[6.143394941,46.204934871],[6.143408041,46.204907971],[6.143418141,46.204880271],[6.143428141,46.204845871]]}},{"type":"Feature","id":"DEMO-L041","properties":{"__uid":"DEMO-L041","link_id":"DEMO-L041","name":"Demo road 31","length_m":46.4},"geometry":{"type":"LineString","coordinates":[[6.143206941,46.204407571],[6.143131641,46.204408571],[6.143032741,46.204402471],[6.142755741,46.204342571],[6.142624441,46.204315671]]}},{"type":"Feature","id":"DEMO-L042","properties":{"__uid":"DEMO-L042","link_id":"DEMO-L042","name":"Demo road 29","length_m":9.7},"geometry":{"type":"LineString","coordinates":[[6.143206941,46.204407571],[6.143201941,46.204436071],[6.143196441,46.204467471],[6.143191841,46.204494171]]}},{"type":"Feature","id":"DEMO-L043","properties":{"__uid":"DEMO-L043","link_id":"DEMO-L043","name":"Demo road 32","length_m":12.7},"geometry":{"type":"LineString","coordinates":[[6.143237041,46.204305071],[6.143253841,46.204335971],[6.143249641,46.204367171],[6.143206941,46.204407571]]}},{"type":"Feature","id":"DEMO-L044","properties":{"__uid":"DEMO-L044","link_id":"DEMO-L044","name":"Demo road 33","length_m":15.3},"geometry":{"type":"LineString","coordinates":[[6.143399141,46.204372171],[6.143294141,46.204390871],[6.143206941,46.204407571]]}},{"type":"Feature","id":"DEMO-L045","properties":{"__uid":"DEMO-L045","link_id":"DEMO-L045","name":"Demo road 30","length_m":57.7},"geometry":{"type":"LineString","coordinates":[[6.143428141,46.204845871],[6.143418141,46.204880271],[6.143408041,46.204907971],[6.143394941,46.204934871],[6.143209641,46.205317471],[6.143199041,46.205339071]]}},{"type":"Feature","id":"DEMO-L046","properties":{"__uid":"DEMO-L046","link_id":"DEMO-L046","name":"Demo road 34","length_m":34.7},"geometry":{"type":"LineString","coordinates":[[6.143428141,46.204845871],[6.143488341,46.204536671]]}},{"type":"Feature","id":"DEMO-L047","properties":{"__uid":"DEMO-L047","link_id":"DEMO-L047","name":"Demo road 35","length_m":3.1},"geometry":{"type":"LineString","coordinates":[[6.143438441,46.204364971],[6.143399141,46.204372171]]}},{"type":"Feature","id":"DEMO-L048","properties":{"__uid":"DEMO-L048","link_id":"DEMO-L048","name":"Demo road 36","length_m":20.0},"geometry":{"type":"LineString","coordinates":[[6.143438441,46.204364971],[6.143451541,46.204380271],[6.143457141,46.204387371],[6.143472741,46.204407271],[6.143480341,46.204425071],[6.143491141,46.204458971],[6.143490441,46.204481971],[6.143491541,46.204512971],[6.143488341,46.204536671]]}},{"type":"Feature","id":"DEMO-L049","properties":{"__uid":"DEMO-L049","link_id":"DEMO-L049","name":"Demo road 34","length_m":34.7},"geometry":{"type":"LineString","coordinates":[[6.143488341,46.204536671],[6.143428141,46.204845871]]}},{"type":"Feature","id":"DEMO-L050","properties":{"__uid":"DEMO-L050","link_id":"DEMO-L050","name":"Demo road 36","length_m":20.0},"geometry":{"type":"LineString","coordinates":[[6.143488341,46.204536671],[6.143491541,46.204512971],[6.143490441,46.204481971],[6.143491141,46.204458971],[6.143480341,46.204425071],[6.143472741,46.204407271],[6.143457141,46.204387371],[6.143451541,46.204380271],[6.143438441,46.204364971]]}},{"type":"Feature","id":"DEMO-L051","properties":{"__uid":"DEMO-L051","link_id":"DEMO-L051","name":"Demo road 37","length_m":4.8},"geometry":{"type":"LineString","coordinates":[[6.143498841,46.204353971],[6.143438441,46.204364971]]}},{"type":"Feature","id":"DEMO-L052","properties":{"__uid":"DEMO-L052","link_id":"DEMO-L052","name":"Demo road 38","length_m":4.9},"geometry":{"type":"LineString","coordinates":[[6.143561041,46.204344071],[6.143526941,46.204350071],[6.143498841,46.204353971]]}},{"type":"Feature","id":"DEMO-L053","properties":{"__uid":"DEMO-L053","link_id":"DEMO-L053","name":"Demo road 39","length_m":5.9},"geometry":{"type":"LineString","coordinates":[[6.143637141,46.204339671],[6.143561041,46.204344071]]}},{"type":"Feature","id":"DEMO-L054","properties":{"__uid":"DEMO-L054","link_id":"DEMO-L054","name":"Demo road 40","length_m":108.6},"geometry":{"type":"LineString","coordinates":[[6.145,46.204566645],[6.144850441,46.204562071],[6.144721141,46.204552271],[6.144641441,46.204543071],[6.144551641,46.204525171],[6.144097441,46.204418571],[6.143781141,46.204351071],[6.143717041,46.204343771],[6.143637141,46.204339671]]}}]}
